start=new Date('2023-04-28T00:00:00.000Z').valueOf();
sats=[{"OBJECT_ID":"2023-046AN","TLE_LINE2":"2 56128  43.0008  90.1695 0001399 271.7490 250.0357 15.64697366  5078","REF_FRAME":"TEME","TLE_LINE1":"1 56128U 23046AN  23117.66667824 -.00930160  00000-0 -10257-1 0  9993","CENTER_NAME":"EARTH","MEAN_MOTION":"15.64697366","APOAPSIS":"375.056","PERIOD":"92.031","EPOCH":"2023-04-27T16:00:00.999936","ARG_OF_PERICENTER":"271.7490","MEAN_ELEMENT_THEORY":"SGP4","ELEMENT_SET_NO":"999","BSTAR":"-0.01025700000000","NORAD_CAT_ID":"56128","ECCENTRICITY":"0.00013990","EPHEMERIS_TYPE":"0","OBJECT_NAME":"STARLINK-6122","COUNTRY_CODE":"US","MEAN_MOTION_DOT":"-0.00930160","FILE":"3894711","RA_OF_ASC_NODE":"90.1695","SEMIMAJOR_AXIS":"6752.246","MEAN_MOTION_DDOT":"0.0000000000000","RCS_SIZE":"LARGE","PERIAPSIS":"373.167","DECAY_DATE":null,"GP_ID":"230813103","LAUNCH_DATE":"2023-03-29","REV_AT_EPOCH":"507","MEAN_ANOMALY":"250.0357","OBJECT_TYPE":"PAYLOAD","INCLINATION":"43.0008","TIME_SYSTEM":"UTC","CLASSIFICATION_TYPE":"U","SITE":"AFETR"},{"SEMIMAJOR_AXIS":"6733.065","RA_OF_ASC_NODE":"89.6746","DECAY_DATE":null,"GP_ID":"230813124","RCS_SIZE":"LARGE","PERIAPSIS":"353.743","MEAN_MOTION_DDOT":"0.0000000000000","OBJECT_TYPE":"PAYLOAD","MEAN_ANOMALY":"107.6694","REV_AT_EPOCH":"508","LAUNCH_DATE":"2023-03-29","CLASSIFICATION_TYPE":"U","SITE":"AFETR","TIME_SYSTEM":"UTC","INCLINATION":"43.0033","TLE_LINE1":"1 56129U 23046AP  23117.66667824 -.00070194  00000-0 -53558-3 0  9999","TLE_LINE2":"2 56129  43.0033  89.6746 0001763 259.0875 107.6694 15.71388459  5088","REF_FRAME":"TEME","OBJECT_ID":"2023-046AP","ARG_OF_PERICENTER":"259.0875","PERIOD":"91.639","EPOCH":"2023-04-27T16:00:00.999936","APOAPSIS":"356.117","MEAN_MOTION":"15.71388459","CENTER_NAME":"EARTH","EPHEMERIS_TYPE":"0","BSTAR":"-0.00053558000000","ELEMENT_SET_NO":"999","NORAD_CAT_ID":"56129","ECCENTRICITY":"0.00017630","MEAN_ELEMENT_THEORY":"SGP4","MEAN_MOTION_DOT":"-0.00070194","FILE":"3894715","COUNTRY_CODE":"US","OBJECT_NAME":"STARLINK-6121"},{"CENTER_NAME":"EARTH","MEAN_MOTION":"15.64720842","APOAPSIS":"375.000","PERIOD":"92.029","ARG_OF_PERICENTER":"262.6946","EPOCH":"2023-04-27T16:00:00.999936","OBJECT_ID":"2023-046AQ","REF_FRAME":"TEME","TLE_LINE2":"2 56130  43.0005  90.1625 0001416 262.6946 261.7660 15.64720842  5078","TLE_LINE1":"1 56130U 23046AQ  23117.66667824 -.00929890  00000-0 -10244-1 0  9990","OBJECT_NAME":"STARLINK-6117","COUNTRY_CODE":"US","FILE":"3894715","MEAN_MOTION_DOT":"-0.00929890","MEAN_ELEMENT_THEORY":"SGP4","NORAD_CAT_ID":"56130","ECCENTRICITY":"0.00014160","ELEMENT_SET_NO":"999","BSTAR":"-0.01024400000000","EPHEMERIS_TYPE":"0","MEAN_MOTION_DDOT":"0.0000000000000","PERIAPSIS":"373.088","RCS_SIZE":"LARGE","GP_ID":"230813200","DECAY_DATE":null,"RA_OF_ASC_NODE":"90.1625","SEMIMAJOR_AXIS":"6752.179","INCLINATION":"43.0005","TIME_SYSTEM":"UTC","SITE":"AFETR","CLASSIFICATION_TYPE":"U","LAUNCH_DATE":"2023-03-29","REV_AT_EPOCH":"507","MEAN_ANOMALY":"261.7660","OBJECT_TYPE":"PAYLOAD"},{"OBJECT_NAME":"STARLINK-6120","COUNTRY_CODE":"US","MEAN_MOTION_DOT":"-0.00904233","FILE":"3894843","MEAN_ELEMENT_THEORY":"SGP4","BSTAR":"-0.01012300000000","ELEMENT_SET_NO":"999","ECCENTRICITY":"0.00012640","NORAD_CAT_ID":"56131","EPHEMERIS_TYPE":"0","CENTER_NAME":"EARTH","MEAN_MOTION":"15.64252335","APOAPSIS":"376.246","PERIOD":"92.057","ARG_OF_PERICENTER":"258.1179","EPOCH":"2023-04-27T22:00:00.999936","OBJECT_ID":"2023-046AR","TLE_LINE2":"2 56131  43.0002  88.6604 0001264 258.1179 240.5072 15.64252335  5118","REF_FRAME":"TEME","TLE_LINE1":"1 56131U 23046AR  23117.91667824 -.00904233  00000-0 -10123-1 0  9999","INCLINATION":"43.0002","TIME_SYSTEM":"UTC","CLASSIFICATION_TYPE":"U","SITE":"AFETR","LAUNCH_DATE":"2023-03-29","REV_AT_EPOCH":"511","MEAN_ANOMALY":"240.5072","OBJECT_TYPE":"PAYLOAD","MEAN_MOTION_DDOT":"0.0000000000000","RCS_SIZE":"LARGE","PERIAPSIS":"374.538","DECAY_DATE":null,"GP_ID":"230843175","RA_OF_ASC_NODE":"88.6604","SEMIMAJOR_AXIS":"6753.527"},{"OBJECT_ID":"2023-046AS","TLE_LINE2":"2 56132  42.9998  88.1723 0001299 257.4898 347.1709 15.64085690  5126","REF_FRAME":"TEME","TLE_LINE1":"1 56132U 23046AS  23118.00001157 -.00926806  00000-0 -10470-1 0  9997","CENTER_NAME":"EARTH","MEAN_MOTION":"15.64085690","APOAPSIS":"376.749","PERIOD":"92.067","ARG_OF_PERICENTER":"257.4898","EPOCH":"2023-04-28T00:00:00.999648","MEAN_ELEMENT_THEORY":"SGP4","ELEMENT_SET_NO":"999","BSTAR":"-0.01047000000000","ECCENTRICITY":"0.00012990","NORAD_CAT_ID":"56132","EPHEMERIS_TYPE":"0","OBJECT_NAME":"STARLINK-6071","COUNTRY_CODE":"US","MEAN_MOTION_DOT":"-0.00926806","FILE":"3895017","RA_OF_ASC_NODE":"88.1723","SEMIMAJOR_AXIS":"6754.007","MEAN_MOTION_DDOT":"0.0000000000000","RCS_SIZE":"LARGE","PERIAPSIS":"374.994","DECAY_DATE":null,"GP_ID":"230847320","LAUNCH_DATE":"2023-03-29","REV_AT_EPOCH":"512","MEAN_ANOMALY":"347.1709","OBJECT_TYPE":"PAYLOAD","INCLINATION":"42.9998","TIME_SYSTEM":"UTC","CLASSIFICATION_TYPE":"U","SITE":"AFETR"},{"OBJECT_ID":"2023-046AT","TLE_LINE1":"1 56133U 23046AT  23117.91667824 -.00892421  00000-0 -99842-2 0  9992","TLE_LINE2":"2 56133  43.0005  88.6628 0001298 259.3212 238.6349 15.64237186  5119","REF_FRAME":"TEME","MEAN_MOTION":"15.64237186","CENTER_NAME":"EARTH","PERIOD":"92.058","ARG_OF_PERICENTER":"259.3212","EPOCH":"2023-04-27T22:00:00.999936","APOAPSIS":"376.312","MEAN_ELEMENT_THEORY":"SGP4","EPHEMERIS_TYPE":"0","BSTAR":"-0.00998420000000","ELEMENT_SET_NO":"999","NORAD_CAT_ID":"56133","ECCENTRICITY":"0.00012980","OBJECT_NAME":"STARLINK-5566","MEAN_MOTION_DOT":"-0.00892421","FILE":"3894843","COUNTRY_CODE":"US","RA_OF_ASC_NODE":"88.6628","SEMIMAJOR_AXIS":"6753.570","RCS_SIZE":"LARGE","PERIAPSIS":"374.559","MEAN_MOTION_DDOT":"0.0000000000000","DECAY_DATE":null,"GP_ID":"230843177","LAUNCH_DATE":"2023-03-29","OBJECT_TYPE":"PAYLOAD","MEAN_ANOMALY":"238.6349","REV_AT_EPOCH":"511","INCLINATION":"43.0005","TIME_SYSTEM":"UTC","CLASSIFICATION_TYPE":"U","SITE":"AFETR"},{"TLE_LINE1":"1 56134U 23046AU  23117.91667824 -.00892466  00000-0 -99895-2 0  9990","REF_FRAME":"TEME","TLE_LINE2":"2 56134  42.9999  88.6637 0001296 260.6764 235.9319 15.64225288  5112","OBJECT_ID":"2023-046AU","ARG_OF_PERICENTER":"260.6764","PERIOD":"92.058","EPOCH":"2023-04-27T22:00:00.999936","APOAPSIS":"376.345","MEAN_MOTION":"15.64225288","CENTER_NAME":"EARTH","EPHEMERIS_TYPE":"0","ECCENTRICITY":"0.00012960","NORAD_CAT_ID":"56134","ELEMENT_SET_NO":"999","BSTAR":"-0.00998950000000","MEAN_ELEMENT_THEORY":"SGP4","FILE":"3894843","MEAN_MOTION_DOT":"-0.00892466","COUNTRY_CODE":"US","OBJECT_NAME":"STARLINK-5564","SEMIMAJOR_AXIS":"6753.605","RA_OF_ASC_NODE":"88.6637","GP_ID":"230843173","DECAY_DATE":null,"PERIAPSIS":"374.594","RCS_SIZE":"LARGE","MEAN_MOTION_DDOT":"0.0000000000000","OBJECT_TYPE":"PAYLOAD","MEAN_ANOMALY":"235.9319","REV_AT_EPOCH":"511","LAUNCH_DATE":"2023-03-29","SITE":"AFETR","CLASSIFICATION_TYPE":"U","TIME_SYSTEM":"UTC","INCLINATION":"42.9999"},{"CENTER_NAME":"EARTH","MEAN_MOTION":"15.71349258","APOAPSIS":"356.147","PERIOD":"91.641","ARG_OF_PERICENTER":"249.1741","EPOCH":"2023-04-27T07:28:39.942624","OBJECT_ID":"2023-046AV","TLE_LINE2":"2 56135  43.0000  92.1907 0001641 249.1741 110.8951 15.71349258  4483","REF_FRAME":"TEME","TLE_LINE1":"1 56135U 23046AV  23117.31157341 -.00010946  00000-0 -80152-4 0  9996","OBJECT_NAME":"STARLINK-5563","COUNTRY_CODE":"US","MEAN_MOTION_DOT":"-0.00010946","FILE":"3894751","MEAN_ELEMENT_THEORY":"SGP4","ELEMENT_SET_NO":"999","BSTAR":"-0.00008015200000","ECCENTRICITY":"0.00016410","NORAD_CAT_ID":"56135","EPHEMERIS_TYPE":"0","MEAN_MOTION_DDOT":"0.0000000000000","RCS_SIZE":"LARGE","PERIAPSIS":"353.937","DECAY_DATE":null,"GP_ID":"230840679","RA_OF_ASC_NODE":"92.1907","SEMIMAJOR_AXIS":"6733.177","INCLINATION":"43.0000","TIME_SYSTEM":"UTC","CLASSIFICATION_TYPE":"U","SITE":"AFETR","LAUNCH_DATE":"2023-03-29","MEAN_ANOMALY":"110.8951","REV_AT_EPOCH":"448","OBJECT_TYPE":"PAYLOAD"},{"RA_OF_ASC_NODE":"88.6633","SEMIMAJOR_AXIS":"6753.587","MEAN_MOTION_DDOT":"0.0000000000000","PERIAPSIS":"374.587","RCS_SIZE":"LARGE","GP_ID":"230842648","DECAY_DATE":null,"LAUNCH_DATE":"2023-03-29","REV_AT_EPOCH":"511","MEAN_ANOMALY":"233.1883","OBJECT_TYPE":"PAYLOAD","INCLINATION":"43.0005","TIME_SYSTEM":"UTC","SITE":"AFETR","CLASSIFICATION_TYPE":"U","OBJECT_ID":"2023-046AW","REF_FRAME":"TEME","TLE_LINE2":"2 56136  43.0005  88.6633 0001281 264.0938 233.1883 15.64231388  5119","TLE_LINE1":"1 56136U 23046AW  23117.91667824 -.00892709  00000-0 -99901-2 0  9990","CENTER_NAME":"EARTH","MEAN_MOTION":"15.64231388","APOAPSIS":"376.317","ARG_OF_PERICENTER":"264.0938","PERIOD":"92.058","EPOCH":"2023-04-27T22:00:00.999936","MEAN_ELEMENT_THEORY":"SGP4","ECCENTRICITY":"0.00012810","NORAD_CAT_ID":"56136","ELEMENT_SET_NO":"999","BSTAR":"-0.00999010000000","EPHEMERIS_TYPE":"0","OBJECT_NAME":"STARLINK-5489","COUNTRY_CODE":"US","FILE":"3894832","MEAN_MOTION_DOT":"-0.00892709"},{"OBJECT_ID":"2023-046AX","TLE_LINE1":"1 56137U 23046AX  23117.91667824 -.00902145  00000-0 -10089-1 0  9996","REF_FRAME":"TEME","TLE_LINE2":"2 56137  43.0006  88.6499 0001271 261.6490 241.4282 15.64273082  5118","MEAN_MOTION":"15.64273082","CENTER_NAME":"EARTH","PERIOD":"92.056","EPOCH":"2023-04-27T22:00:00.999936","ARG_OF_PERICENTER":"261.6490","APOAPSIS":"376.191","MEAN_ELEMENT_THEORY":"SGP4","EPHEMERIS_TYPE":"0","ECCENTRICITY":"0.00012710","NORAD_CAT_ID":"56137","BSTAR":"-0.01008900000000","ELEMENT_SET_NO":"999","OBJECT_NAME":"STARLINK-5090","FILE":"3894832","MEAN_MOTION_DOT":"-0.00902145","COUNTRY_CODE":"US","RA_OF_ASC_NODE":"88.6499","SEMIMAJOR_AXIS":"6753.467","PERIAPSIS":"374.474","RCS_SIZE":"LARGE","MEAN_MOTION_DDOT":"0.0000000000000","GP_ID":"230842645","DECAY_DATE":null,"LAUNCH_DATE":"2023-03-29","OBJECT_TYPE":"PAYLOAD","MEAN_ANOMALY":"241.4282","REV_AT_EPOCH":"511","INCLINATION":"43.0006","TIME_SYSTEM":"UTC","SITE":"AFETR","CLASSIFICATION_TYPE":"U"}];
